ONEWEB-0228             
1 48780U 21045P   23299.43855084  .00000090  00000+0  20545-3 0  9998
2 48780  87.8952  91.2548 0001614  87.2107 272.9208 13.15549167117487
